[
{"id":"15","region_id":"1","name_uz":"Amudaryo tumani","name_oz":"������ ������","name_ru":"������������� �����"},
{"id":"16","region_id":"1","name_uz":"Beruniy tumani","name_oz":"������� ������","name_ru":"����������� �����"},
{"id":"17","region_id":"1","name_uz":"Kegayli tumani","name_oz":"������� ������","name_ru":"������������ �����"},
{"id":"18","region_id":"1","name_uz":"Qonliko�l tumani","name_oz":"?������ ������","name_ru":"������������� �����"},
{"id":"19","region_id":"1","name_uz":"Qorao�zak tumani","name_oz":"?������ ������","name_ru":"������������ �����"},
{"id":"20","region_id":"1","name_uz":"Qo�ng�irot tumani","name_oz":"?��?���� ������","name_ru":"����������� �����"},
{"id":"21","region_id":"1","name_uz":"Mo�ynoq tumani","name_oz":"̢���? ������","name_ru":"���������� �����"},
{"id":"22","region_id":"1","name_uz":"Nukus tumani","name_oz":"����� ������","name_ru":"��������� �����"},
{"id":"23","region_id":"1","name_uz":"Nukus shahri","name_oz":"����� ��?��","name_ru":"����� �����"},
{"id":"24","region_id":"1","name_uz":"Taxtako�pir tumani","name_oz":"��������� ������","name_ru":"�������������� �����"},
{"id":"25","region_id":"1","name_uz":"To�rtko�l tumani","name_oz":"Ң���� ������","name_ru":"������������ �����"},
{"id":"26","region_id":"1","name_uz":"Xo�jayli tumani","name_oz":"բ����� ������","name_ru":"������������� �����"},
{"id":"27","region_id":"1","name_uz":"Chimboy tumani","name_oz":"������ ������","name_ru":"���������� �����"},
{"id":"28","region_id":"1","name_uz":"Shumanay tumani","name_oz":"������� ������","name_ru":"����������� �����"},
{"id":"29","region_id":"1","name_uz":"Ellikqal�a tumani","name_oz":"�����?���� ������","name_ru":"�������������� �����"},
{"id":"30","region_id":"2","name_uz":"Andijon shahri","name_oz":"������� ��?��","name_ru":"����� �������"},
{"id":"31","region_id":"2","name_uz":"Andijon tumani","name_oz":"������� ������","name_ru":"����������� �����"},
{"id":"32","region_id":"2","name_uz":"Asaka tumani","name_oz":"����� ������","name_ru":"���������� �����"},
{"id":"33","region_id":"2","name_uz":"Baliqchi tumani","name_oz":"����?�� ������","name_ru":"������������ �����"},
{"id":"34","region_id":"2","name_uz":"Buloqboshi tumani","name_oz":"����?���� ������","name_ru":"�������������� �����"},
{"id":"35","region_id":"2","name_uz":"Bo�z tumani","name_oz":"��� ������","name_ru":"������� �����"},
{"id":"36","region_id":"2","name_uz":"Jalaquduq tumani","name_oz":"����?���? ������","name_ru":"�������������� �����"},
{"id":"37","region_id":"2","name_uz":"Izbosgan tumani","name_oz":"�������� ������","name_ru":"������������ �����"},
{"id":"38","region_id":"2","name_uz":"Qorasuv shahri","name_oz":"?������ ��?��","name_ru":"����� �������"},
{"id":"39","region_id":"2","name_uz":"Qo�rg�ontepa tumani","name_oz":"?��?������ ������","name_ru":"��������������� �����"},
{"id":"40","region_id":"2","name_uz":"Marhamat tumani","name_oz":"���?���� ������","name_ru":"������������ �����"},
{"id":"41","region_id":"2","name_uz":"Oltinko�l tumani","name_oz":"������� ������","name_ru":"������������� �����"},
{"id":"42","region_id":"2","name_uz":"Paxtaobod tumani","name_oz":"��������� ������","name_ru":"������������� �����"},
{"id":"43","region_id":"2","name_uz":"Ulug�nor tumani","name_oz":"���?��� ������","name_ru":"����������� �����"},
{"id":"44","region_id":"2","name_uz":"Xonabod tumani","name_oz":"������� ������","name_ru":"����� �������"},
{"id":"45","region_id":"2","name_uz":"Xo�jaobod tumani","name_oz":"բ������ ������","name_ru":"������������� �����"},
{"id":"46","region_id":"2","name_uz":"Shahrixon tumani","name_oz":"��?����� ������","name_ru":"������������ �����"},
{"id":"47","region_id":"3","name_uz":"Buxoro shahri","name_oz":"������ ��?��","name_ru":"����� ������"},
{"id":"48","region_id":"3","name_uz":"Buxoro tumani","name_oz":"������ ������","name_ru":"��������� �����"},
{"id":"49","region_id":"3","name_uz":"Vobkent tumani","name_oz":"������� ������","name_ru":"����������� �����"},
{"id":"50","region_id":"3","name_uz":"G�ijduvon tumani","name_oz":"?������� ������","name_ru":"������������ �����"},
{"id":"51","region_id":"3","name_uz":"Jondor tumani","name_oz":"������ ������","name_ru":"���������� �����"},
{"id":"52","region_id":"3","name_uz":"Kogon tumani","name_oz":"����� ������","name_ru":"��������� �����"},
{"id":"53","region_id":"3","name_uz":"Kogon shahri","name_oz":"����� ��?��","name_ru":"����� �����"},
{"id":"54","region_id":"3","name_uz":"Qorako�l tumani","name_oz":"?����� ������","name_ru":"������������ �����"},
{"id":"55","region_id":"3","name_uz":"Qorovulbozor tumani","name_oz":"?����������� ������","name_ru":"��������������� �����"},
{"id":"56","region_id":"3","name_uz":"Olot tumani","name_oz":"���� ������","name_ru":"�������� �����"},
{"id":"57","region_id":"3","name_uz":"Peshku tumani","name_oz":"����� ������","name_ru":"���������� �����"},
{"id":"58","region_id":"3","name_uz":"Romitan tumani","name_oz":"������� ������","name_ru":"����������� �����"},
{"id":"59","region_id":"3","name_uz":"Shofirkon tumani","name_oz":"�������� ������","name_ru":"������������ �����"},
{"id":"60","region_id":"4","name_uz":"Arnasoy tumani","name_oz":"������� ������","name_ru":"����������� �����"},
{"id":"61","region_id":"4","name_uz":"Baxmal tumani","name_oz":"������ ������","name_ru":"����������� �����"},
{"id":"62","region_id":"4","name_uz":"G�allaorol tumani","name_oz":"?�������� ������","name_ru":"�������������� �����"},
{"id":"63","region_id":"4","name_uz":"Do�stlik tumani","name_oz":"Ģ����� ������","name_ru":"����������� �����"},
{"id":"64","region_id":"4","name_uz":"Sh.Rashidov tumani","name_oz":"�.������� ������","name_ru":"�����-����������� �����"},
{"id":"65","region_id":"4","name_uz":"Jizzax shahri","name_oz":"������ ��?��","name_ru":"����� ������"},
{"id":"66","region_id":"4","name_uz":"Zarbdor tumani","name_oz":"������� ������","name_ru":"����������� �����"},
{"id":"67","region_id":"4","name_uz":"Zafarobod tumani","name_oz":"��������� ������","name_ru":"������������� �����"},
{"id":"68","region_id":"4","name_uz":"Zomin tumani","name_oz":"����� ������","name_ru":"���������� �����"},
{"id":"69","region_id":"4","name_uz":"Mirzacho�l tumani","name_oz":"�������� ������","name_ru":"������������� �����"},
{"id":"70","region_id":"4","name_uz":"Paxtakor tumani","name_oz":"�������� ������","name_ru":"������������ �����"},
{"id":"71","region_id":"4","name_uz":"Forish tumani","name_oz":"����� ������","name_ru":"��������� �����"},
{"id":"72","region_id":"4","name_uz":"Yangiobod tumani","name_oz":"�������� ������","name_ru":"������������ �����"},
{"id":"73","region_id":"5","name_uz":"G�uzor tumani","name_oz":"?���� ������","name_ru":"��������� �����"},
{"id":"74","region_id":"5","name_uz":"Dehqonobod tumani","name_oz":"��??������ ������","name_ru":"�������������� �����"},
{"id":"75","region_id":"5","name_uz":"Qamashi tumani","name_oz":"?����� ������","name_ru":"����������� �����"},
{"id":"76","region_id":"5","name_uz":"Qarshi tumani","name_oz":"?���� ������","name_ru":"���������� �����"},
{"id":"77","region_id":"5","name_uz":"Qarshi shahri","name_oz":"?���� ��?��","name_ru":"����� �����"},
{"id":"78","region_id":"5","name_uz":"Kasbi tumani","name_oz":"����� ������","name_ru":"���������� �����"},
{"id":"79","region_id":"5","name_uz":"Kitob tumani","name_oz":"����� ������","name_ru":"��������� �����"},
{"id":"80","region_id":"5","name_uz":"Koson tumani","name_oz":"����� ������","name_ru":"��������� �����"},
{"id":"81","region_id":"5","name_uz":"Mirishkor tumani","name_oz":"�������� ������","name_ru":"������������ �����"},
{"id":"82","region_id":"5","name_uz":"Muborak tumani","name_oz":"������� ������","name_ru":"����������� �����"},
{"id":"83","region_id":"5","name_uz":"Nishon tumani","name_oz":"����� ������","name_ru":"��������� �����"},
{"id":"84","region_id":"5","name_uz":"Chiroqchi tumani","name_oz":"����?�� ������","name_ru":"������������ �����"},
{"id":"85","region_id":"5","name_uz":"Shahrisabz tumani","name_oz":"��?������ ������","name_ru":"������������� �����"},
{"id":"86","region_id":"5","name_uz":"Yakkabog� tumani","name_oz":"������? ������","name_ru":"����������� �����"},
{"id":"87","region_id":"6","name_uz":"Zarafshon shahri","name_oz":"�������� ��?��","name_ru":"����� ��������"},
{"id":"88","region_id":"6","name_uz":"Karman tumani","name_oz":"������ ������","name_ru":"������������ �����"},
{"id":"89","region_id":"6","name_uz":"Qiziltepa tumani","name_oz":"?�������� ������","name_ru":"�������������� �����"},
{"id":"90","region_id":"6","name_uz":"Konimex tumani","name_oz":"������� ������","name_ru":"����������� �����"},
{"id":"91","region_id":"6","name_uz":"Navbahor tumani","name_oz":"�����?�� ������","name_ru":"������������ �����"},
{"id":"92","region_id":"6","name_uz":"Navoiy shahri","name_oz":"������ ��?��","name_ru":"����� �����"},
{"id":"93","region_id":"6","name_uz":"Nurota tumani","name_oz":"������ ������","name_ru":"����������� �����"},
{"id":"94","region_id":"6","name_uz":"Tomdi tumani","name_oz":"����� ������","name_ru":"���������� �����"},
{"id":"95","region_id":"6","name_uz":"Uchquduq tumani","name_oz":"��?���? ������","name_ru":"����������� �����"},
{"id":"96","region_id":"6","name_uz":"Xatirchi tumani","name_oz":"������� ������","name_ru":"������������ �����"},
{"id":"97","region_id":"7","name_uz":"Kosonsoy tumani","name_oz":"�������� ������","name_ru":"������������ �����"},
{"id":"98","region_id":"7","name_uz":"Mingbuloq tumani","name_oz":"��������? ������","name_ru":"������������� �����"},
{"id":"99","region_id":"7","name_uz":"Namangan tumani","name_oz":"�������� ������","name_ru":"������������ �����"},
{"id":"100","region_id":"7","name_uz":"Namangan shahri","name_oz":"�������� ��?��","name_ru":"����� ��������"},
{"id":"101","region_id":"7","name_uz":"Norin tumani","name_oz":"����� ������","name_ru":"��������� �����"},
{"id":"102","region_id":"7","name_uz":"Pop tumani","name_oz":"��� ������","name_ru":"������� �����"},
{"id":"103","region_id":"7","name_uz":"To�raqo�rg�on tumani","name_oz":"Ң��?��?�� ������","name_ru":"�������������� �����"},
{"id":"104","region_id":"7","name_uz":"Uychi tumani","name_oz":"���� ������","name_ru":"��������� �����"},
{"id":"105","region_id":"7","name_uz":"Uchqo�rg�on tumani","name_oz":"��?��?�� ������","name_ru":"������������ �����"},
{"id":"106","region_id":"7","name_uz":"Chortoq tumani","name_oz":"�����? ������","name_ru":"���������� �����"},
{"id":"107","region_id":"7","name_uz":"Chust tumani","name_oz":"���� ������","name_ru":"�������� �����"},
{"id":"108","region_id":"7","name_uz":"Yangiqo�rg�on tumani","name_oz":"����?��?�� ������","name_ru":"�������������� �����"},
{"id":"109","region_id":"8","name_uz":"Bulung�ur tumani","name_oz":"�����?�� ������","name_ru":"������������ �����"},
{"id":"110","region_id":"8","name_uz":"Jomboy tumani","name_oz":"������ ������","name_ru":"����������� �����"},
{"id":"111","region_id":"8","name_uz":"Ishtixon tumani","name_oz":"������� ������","name_ru":"����������� �����"},
{"id":"112","region_id":"8","name_uz":"Kattaqo�rg�on tumani","name_oz":"�����?��?�� ������","name_ru":"��������������� �����"},
{"id":"113","region_id":"8","name_uz":"Kattaqo�rg�on shahri","name_oz":"�����?��?�� ��?��","name_ru":"����� �����������"},
{"id":"114","region_id":"8","name_uz":"Qo�shrabot tumani","name_oz":"?������� ������","name_ru":"������������ �����"},
{"id":"115","region_id":"8","name_uz":"Narpay tumani","name_oz":"������ ������","name_ru":"���������� �����"},
{"id":"116","region_id":"8","name_uz":"Nurabod tumani","name_oz":"������� ������","name_ru":"����������� �����"},
{"id":"117","region_id":"8","name_uz":"Oqdaryo tumani","name_oz":"�?��� ������","name_ru":"������������ �����"},
{"id":"118","region_id":"8","name_uz":"Payariq tumani","name_oz":"�����? ������","name_ru":"����������� �����"},
{"id":"119","region_id":"8","name_uz":"Pastarg�om tumani","name_oz":"������?�� ������","name_ru":"�������������� �����"},
{"id":"120","region_id":"8","name_uz":"Paxtachi tumani","name_oz":"������� ������","name_ru":"������������ �����"},
{"id":"121","region_id":"8","name_uz":"Samarqand tumani","name_oz":"�����?��� ������","name_ru":"������������� �����"},
{"id":"122","region_id":"8","name_uz":"Samarqand shahri","name_oz":"�����?��� ��?��","name_ru":"����� ���������"},
{"id":"123","region_id":"8","name_uz":"Toyloq tumani","name_oz":"�����? ������","name_ru":"���������� �����"},
{"id":"124","region_id":"8","name_uz":"Urgut tumani","name_oz":"����� ������","name_ru":"��������� �����"},
{"id":"125","region_id":"9","name_uz":"Angor tumani","name_oz":"����� ������","name_ru":"��������� �����"},
{"id":"126","region_id":"9","name_uz":"Boysun tumani","name_oz":"������ ������","name_ru":"���������� �����"},
{"id":"127","region_id":"9","name_uz":"Denov tumani","name_oz":"����� ������","name_ru":"��������� �����"},
{"id":"128","region_id":"9","name_uz":"Jarqo�rg�on tumani","name_oz":"���?��?�� ������","name_ru":"�������������� �����"},
{"id":"129","region_id":"9","name_uz":"Qiziriq tumani","name_oz":"?�����? ������","name_ru":"����������� �����"},
{"id":"130","region_id":"9","name_uz":"Qo�mqo�rg�on tumani","name_oz":"?��?��?�� ������","name_ru":"������������� �����"},
{"id":"131","region_id":"9","name_uz":"Muzrabot tumani","name_oz":"�������� ������","name_ru":"������������ �����"},
{"id":"132","region_id":"9","name_uz":"Oltinsoy tumani","name_oz":"�������� ������","name_ru":"������������ �����"},
{"id":"133","region_id":"9","name_uz":"Sariosiy tumani","name_oz":"�������� ������","name_ru":"������������ �����"},
{"id":"134","region_id":"9","name_uz":"Termiz tumani","name_oz":"������ ������","name_ru":"���������� �����"},
{"id":"135","region_id":"9","name_uz":"Termiz shahri","name_oz":"������ ��?��","name_ru":"����� ������"},
{"id":"136","region_id":"9","name_uz":"Uzun tumani","name_oz":"���� ������","name_ru":"�������� �����"},
{"id":"137","region_id":"9","name_uz":"Sherobod tumani","name_oz":"������� ������","name_ru":"����������� �����"},
{"id":"138","region_id":"9","name_uz":"Sho�rchi tumani","name_oz":"آ��� ������","name_ru":"���������� �����"},
{"id":"139","region_id":"10","name_uz":"Boyovut tumani","name_oz":"����� ������","name_ru":"��������� �����"},
{"id":"140","region_id":"10","name_uz":"Guliston tumani","name_oz":"�������� ������","name_ru":"������������ �����"},
{"id":"141","region_id":"10","name_uz":"Guliston shahri","name_oz":"�������� ��?��","name_ru":"����� ��������"},
{"id":"142","region_id":"10","name_uz":"Mirzaobod tumani","name_oz":"��������� ������","name_ru":"������������� �����"},
{"id":"143","region_id":"10","name_uz":"Oqoltin tumani","name_oz":"�?����� ������","name_ru":"����������� �����"},
{"id":"144","region_id":"10","name_uz":"Sayxunobod tumani","name_oz":"���������� ������","name_ru":"�������������� �����"},
{"id":"145","region_id":"10","name_uz":"Sardoba tumani","name_oz":"������� ������","name_ru":"���������� �����"},
{"id":"146","region_id":"10","name_uz":"Sirdaryo tumani","name_oz":"������ ������","name_ru":"������������� �����"},
{"id":"147","region_id":"10","name_uz":"Xavos tumani","name_oz":"����� ������","name_ru":"���������� �����"},
{"id":"148","region_id":"10","name_uz":"Shirin shahri","name_oz":"����� ��?��","name_ru":"����� �����"},
{"id":"149","region_id":"10","name_uz":"Yangiyer shahri","name_oz":"������ ��?��","name_ru":"����� ������"},
{"id":"150","region_id":"11","name_uz":"Angiren shahri","name_oz":"������� ��?��","name_ru":"����� ������"},
{"id":"151","region_id":"11","name_uz":"Bekabod tumani","name_oz":"������� ������","name_ru":"����������� �����"},
{"id":"152","region_id":"11","name_uz":"Bekabod shahri","name_oz":"������� ��?��","name_ru":"����� �������"},
{"id":"153","region_id":"11","name_uz":"Bo�ka tumani","name_oz":"���� ������","name_ru":"��������� �����"},
{"id":"154","region_id":"11","name_uz":"Bo�stonliq tumani","name_oz":"��������? ������","name_ru":"������������� �����"},
{"id":"155","region_id":"11","name_uz":"Zangiota tumani","name_oz":"�������� ������","name_ru":"������������� �����"},
{"id":"156","region_id":"11","name_uz":"Qibray tumani","name_oz":"?����� ������","name_ru":"���������� �����"},
{"id":"157","region_id":"11","name_uz":"Quyichirchiq tumani","name_oz":"?��������? ������","name_ru":"�������������� �����"},
{"id":"158","region_id":"11","name_uz":"Oqqo�rg�on tumani","name_oz":"�??��?�� ������","name_ru":"������������ �����"},
{"id":"159","region_id":"11","name_uz":"Olmaliq shahri","name_oz":"������? ��?��","name_ru":"����� �������"},
{"id":"160","region_id":"11","name_uz":"Ohangaron tumani","name_oz":"�?������� ������","name_ru":"������������� �����"},
{"id":"161","region_id":"11","name_uz":"Parkent tumani","name_oz":"������� ������","name_ru":"����������� �����"},
{"id":"162","region_id":"11","name_uz":"Piskent tumani","name_oz":"������� ������","name_ru":"���������� �����"},
{"id":"163","region_id":"11","name_uz":"O�rtachirchiq tumani","name_oz":"���������? ������","name_ru":"�������������� �����"},
{"id":"164","region_id":"11","name_uz":"Chinoz tumani","name_oz":"����� ������","name_ru":"��������� �����"},
{"id":"165","region_id":"11","name_uz":"Chirchiq shahri","name_oz":"�����? ��?��","name_ru":"����� ������"},
{"id":"166","region_id":"11","name_uz":"Yuqorichirchiq tumani","name_oz":"�?��������? ������","name_ru":"��������������� �����"},
{"id":"167","region_id":"11","name_uz":"Yangiyo�l tumani","name_oz":"������ ������","name_ru":"����������� �����"},
{"id":"168","region_id":"12","name_uz":"Beshariq tumani","name_oz":"������? ������","name_ru":"����������� �����"},
{"id":"169","region_id":"12","name_uz":"Bog�dod tumani","name_oz":"��?��� ������","name_ru":"���������� �����"},
{"id":"170","region_id":"12","name_uz":"Buvayda tumani","name_oz":"������� ������","name_ru":"������������ �����"},
{"id":"171","region_id":"12","name_uz":"Dang�ara tumani","name_oz":"���?��� ������","name_ru":"������������ �����"},
{"id":"172","region_id":"12","name_uz":"Yozyovon tumani","name_oz":"����� ������","name_ru":"����������� �����"},
{"id":"173","region_id":"12","name_uz":"Quva tumani","name_oz":"?��� ������","name_ru":"��������� �����"},
{"id":"174","region_id":"12","name_uz":"Quvasoy shahri","name_oz":"?������ ��?��","name_ru":"����� �������"},
{"id":"175","region_id":"12","name_uz":"Qo�qon shahri","name_oz":"?�?�� ��?��","name_ru":"����� ������"},
{"id":"176","region_id":"12","name_uz":"Qo�shtepa tumani","name_oz":"?������ ������","name_ru":"������������ �����"},
{"id":"177","region_id":"12","name_uz":"Marg�ilon shahri","name_oz":"���?���� ��?��","name_ru":"����� ��������"},
{"id":"178","region_id":"12","name_uz":"Oltiariq tumani","name_oz":"�������? ������","name_ru":"������������ �����"},
{"id":"179","region_id":"12","name_uz":"Rishton tumani","name_oz":"������ ������","name_ru":"���������� �����"},
{"id":"180","region_id":"12","name_uz":"So�x tumani","name_oz":"Ѣ� ������","name_ru":"������� �����"},
{"id":"181","region_id":"12","name_uz":"Toshloq tumani","name_oz":"�����? ������","name_ru":"���������� �����"},
{"id":"182","region_id":"12","name_uz":"Uchko�prik tumani","name_oz":"������� ������","name_ru":"������������ �����"},
{"id":"183","region_id":"12","name_uz":"O�zbekiston tumani","name_oz":"���������� ������","name_ru":"�������������� �����"},
{"id":"184","region_id":"12","name_uz":"Farg�ona tumani","name_oz":"���?��� ������","name_ru":"���������� �����"},
{"id":"185","region_id":"12","name_uz":"Farg�ona shahri","name_oz":"���?��� ��?��","name_ru":"����� �������"},
{"id":"186","region_id":"12","name_uz":"Furqat tumani","name_oz":"���?�� ������","name_ru":"���������� �����"},
{"id":"187","region_id":"13","name_uz":"Bog�ot tumani","name_oz":"��?�� ������","name_ru":"��������� �����"},
{"id":"188","region_id":"13","name_uz":"Gurlan tumani","name_oz":"������ ������","name_ru":"���������� �����"},
{"id":"189","region_id":"13","name_uz":"Qo�shko�pir tumani","name_oz":"?������ ������","name_ru":"������������ �����"},
{"id":"190","region_id":"13","name_uz":"Urganch tumani","name_oz":"������ ������","name_ru":"���������� �����"},
{"id":"191","region_id":"13","name_uz":"Urganch shahri","name_oz":"������ ��?��","name_ru":"����� ������"},
{"id":"192","region_id":"13","name_uz":"Xiva tumani","name_oz":"���� ������","name_ru":"��������� �����"},
{"id":"193","region_id":"13","name_uz":"Xazarasp tumani","name_oz":"�������� ������","name_ru":"������������ �����"},
{"id":"194","region_id":"13","name_uz":"Xonqa tumani","name_oz":"���?� ������","name_ru":"���������� �����"},
{"id":"195","region_id":"13","name_uz":"Shavot tumani","name_oz":"����� ������","name_ru":"��������� �����"},
{"id":"196","region_id":"13","name_uz":"Yangiariq tumani","name_oz":"�������? ������","name_ru":"������������ �����"},
{"id":"197","region_id":"13","name_uz":"Yangibozor tumani","name_oz":"��������� ������","name_ru":"������������� �����"},
{"id":"198","region_id":"14","name_uz":"Bektimer tumani","name_oz":"�������� ������","name_ru":"������������ �����"},
{"id":"199","region_id":"14","name_uz":"Mirzo Ulug'bek tumani","name_oz":"�����-����������� �����","name_ru":"�����-����������� �����"},
{"id":"200","region_id":"14","name_uz":"Mirobod tumani","name_oz":"������� ������","name_ru":"����������� �����"},
{"id":"201","region_id":"14","name_uz":"Olmazor tumani","name_oz":"������� ������","name_ru":"����������� �����"},
{"id":"202","region_id":"14","name_uz":"Sirg'ali tumani","name_oz":"������� ������","name_ru":"������������ �����"},
{"id":"203","region_id":"14","name_uz":"Uchtepa tumani","name_oz":"������ ������","name_ru":"����������� �����"},
{"id":"204","region_id":"14","name_uz":"Yashnobod tumani","name_oz":"������� ������","name_ru":"����������� �����"},
{"id":"205","region_id":"14","name_uz":"Chilonzor tumani","name_oz":"�������� ������","name_ru":"������������ �����"},
{"id":"206","region_id":"14","name_uz":"Shayxontohur tumani","name_oz":"��������?�� ������","name_ru":"��������������� �����"},
{"id":"207","region_id":"14","name_uz":"Yunusobod tumani","name_oz":"�������� ������","name_ru":"������������ �����"},
{"id":"208","region_id":"14","name_uz":"Yakkasaroy tumani","name_oz":"��������� ������","name_ru":"������������� �����"},
{"id":"209","region_id":"1","name_uz":"Taxiatosh shahri","name_oz":"�������� ��?��","name_ru":"������������ �����"},
{"id":"210","region_id":"2","name_uz":"Asaka shahri","name_oz":"����� ��?��","name_ru":"���������� �����"},
{"id":"211","region_id":"9","name_uz":"Bandixon tumani","name_oz":"�������� ������","name_ru":"������������ �����"},
{"id":"212","region_id":"11","name_uz":"Ohangaron shahri","name_oz":"�?������� ��?��","name_ru":"����� �������������"},
{"id":"213","region_id":"11","name_uz":"Yangiyo�l shahri","name_oz":"������ ��?��","name_ru":"����� �������"},
{"id":"215","region_id":"11","name_uz":"Toshkent tumani","name_oz":"������� ������","name_ru":"����������� �����"},
{"id":"216","region_id":"13","name_uz":"Xiva shahri","name_oz":"���� ��?��","name_ru":"����� ����"},
{"id":"217","region_id":"13","name_uz":"Do'stlik shahri","name_oz":"Ģ����� ��?��\r\nĢ����� ��?��","name_ru":"����� Ģ�����\r\nĢ�����"},
{"id":"218","region_id":"14","name_uz":"Yangihayot tumani","name_oz":"����?�� ������","name_ru":"����������� �����"},
{"id":"219","region_id":"13","name_uz":"Tuproqqala tumani","name_oz":"�����??���� ������","name_ru":"������������� �����"},
{"id":"220","region_id":"7","name_uz":"Davlatobod tumani","name_oz":"���������� ������","name_ru":"�������������� ����� \r\n"},
{"id":"221","region_id":"6","name_uz":"G�ozg�on shahri","name_oz":"?��?�� ��?��","name_ru":"����� ������"},
{"id":"222","region_id":"1","name_uz":"Bo�zatov tumani","name_oz":"������� ������","name_ru":"����������� �����"},
{"id":"223","region_id":"9","name_uz":"Bandixon tumani","name_oz":"�������� ������","name_ru":"������������� �����"},
{"id":"224","region_id":"5","name_uz":"Shahrisabz shahri","name_oz":"��?������ ��?��","name_ru":"����� ���������"}]